FLOCK 4BE-15            
1 60491U 24149Z   26068.71005581  .00078474  00000+0  19250-2 0  9997
2 60491  97.3755 151.8811 0003287 305.1449  54.9489 15.40412938 87022
STARLINK-36195          
1 67124U 25299Y   26068.33021255  .00052806  00000+0  12615-2 0  9997
2 67124  43.0011 170.8185 0001166 263.7182  96.3541 15.40727297 13066
