[{"OBJECT_NAME":"FLOCK 4BE-15","OBJECT_ID":"2024-149Z","EPOCH":"2026-03-09T17:02:28.822848","MEAN_MOTION":15.40412938,"ECCENTRICITY":0.00032866,"INCLINATION":97.3755,"RA_OF_ASC_NODE":151.8811,"ARG_OF_PERICENTER":305.1449,"MEAN_ANOMALY":54.9489,"EPHEMERIS_TYPE":0,"CLASSIFICATION_TYPE":"U","NORAD_CAT_ID":60491,"ELEMENT_SET_NO":999,"REV_AT_EPOCH":8702,"BSTAR":0.0019249648,"MEAN_MOTION_DOT":0.00078474,"MEAN_MOTION_DDOT":0},{"OBJECT_NAME":"STARLINK-36195","OBJECT_ID":"2025-299Y","EPOCH":"2026-03-09T07:55:30.364320","MEAN_MOTION":15.40727297,"ECCENTRICITY":0.00011668,"INCLINATION":43.0011,"RA_OF_ASC_NODE":170.8185,"ARG_OF_PERICENTER":263.7182,"MEAN_ANOMALY":96.3541,"EPHEMERIS_TYPE":0,"CLASSIFICATION_TYPE":"U","NORAD_CAT_ID":67124,"ELEMENT_SET_NO":999,"REV_AT_EPOCH":1306,"BSTAR":0.0012615233,"MEAN_MOTION_DOT":0.00052806,"MEAN_MOTION_DDOT":0}]
